[{"OBJECT_NAME":"CUBESAT XI-V","OBJECT_ID":"2005-043F","EPOCH":"2026-03-09T09:01:31.480320","MEAN_MOTION":14.72318453,"ECCENTRICITY":0.00147247,"INCLINATION":98.2834,"RA_OF_ASC_NODE":221.9939,"ARG_OF_PERICENTER":158.5117,"MEAN_ANOMALY":201.671,"EPHEMERIS_TYPE":0,"CLASSIFICATION_TYPE":"U","NORAD_CAT_ID":28895,"ELEMENT_SET_NO":999,"REV_AT_EPOCH":8706,"BSTAR":0.00040287763,"MEAN_MOTION_DOT":2.499e-5,"MEAN_MOTION_DDOT":0},{"OBJECT_NAME":"SCOUT B-1 DEB","OBJECT_ID":"1972-069D","EPOCH":"2026-03-09T05:43:16.204800","MEAN_MOTION":14.73828112,"ECCENTRICITY":0.00377293,"INCLINATION":90.4698,"RA_OF_ASC_NODE":343.4643,"ARG_OF_PERICENTER":174.6658,"MEAN_ANOMALY":185.4972,"EPHEMERIS_TYPE":0,"CLASSIFICATION_TYPE":"U","NORAD_CAT_ID":6284,"ELEMENT_SET_NO":999,"REV_AT_EPOCH":73362,"BSTAR":0.00046765709,"MEAN_MOTION_DOT":3.107e-5,"MEAN_MOTION_DDOT":0}]
